CCSDS_OMM_VERS = 2.0
CREATION_DATE  = 
ORIGINATOR     = 

OBJECT_NAME    = CYGNUS NG-23
OBJECT_ID      = 2025-208A
CENTER_NAME    = EARTH
REF_FRAME      = TEME
TIME_SYSTEM    = UTC
MEAN_ELEMENT_THEORY = SGP/SGP4

EPOCH          = 2025-12-25T05:52:58.411200
MEAN_MOTION    = 15.49803499
ECCENTRICITY   = .00032029
INCLINATION    = 51.6316
RA_OF_ASC_NODE = 80.5467
ARG_OF_PERICENTER = 298.8467
MEAN_ANOMALY   = 61.2200

EPHEMERIS_TYPE = 0
CLASSIFICATION_TYPE = U
NORAD_CAT_ID   = 65616
ELEMENT_SET_NO = 999
REV_AT_EPOCH   = 22
BSTAR          = .25322562E-3
MEAN_MOTION_DOT = .13923E-3
MEAN_MOTION_DDOT = 0

CCSDS_OMM_VERS = 2.0
CREATION_DATE  = 
ORIGINATOR     = 

OBJECT_NAME    = DRAGONFLY
OBJECT_ID      = 1998-067XH
CENTER_NAME    = EARTH
REF_FRAME      = TEME
TIME_SYSTEM    = UTC
MEAN_ELEMENT_THEORY = SGP/SGP4

EPOCH          = 2025-12-24T22:17:24.636768
MEAN_MOTION    = 15.76149650
ECCENTRICITY   = .0008056
INCLINATION    = 51.6251
RA_OF_ASC_NODE = 73.1569
ARG_OF_PERICENTER = 349.7528
MEAN_ANOMALY   = 10.3306

EPHEMERIS_TYPE = 0
CLASSIFICATION_TYPE = U
NORAD_CAT_ID   = 65729
ELEMENT_SET_NO = 999
REV_AT_EPOCH   = 1508
BSTAR          = .12603851E-2
MEAN_MOTION_DOT = .206057E-2
MEAN_MOTION_DDOT = 0

CCSDS_OMM_VERS = 2.0
CREATION_DATE  = 
ORIGINATOR     = 

OBJECT_NAME    = 1998-067XK
OBJECT_ID      = 1998-067XK
CENTER_NAME    = EARTH
REF_FRAME      = TEME
TIME_SYSTEM    = UTC
MEAN_ELEMENT_THEORY = SGP/SGP4

EPOCH          = 2025-12-24T11:16:20.028000
MEAN_MOTION    = 15.67978094
ECCENTRICITY   = .00049802
INCLINATION    = 51.6288
RA_OF_ASC_NODE = 77.6233
ARG_OF_PERICENTER = 319.0572
MEAN_ANOMALY   = 41.0050

EPHEMERIS_TYPE = 0
CLASSIFICATION_TYPE = U
NORAD_CAT_ID   = 65731
ELEMENT_SET_NO = 999
REV_AT_EPOCH   = 1498
BSTAR          = .93626937E-3
MEAN_MOTION_DOT = .106638E-2
MEAN_MOTION_DDOT = 0

CCSDS_OMM_VERS = 2.0
CREATION_DATE  = 
ORIGINATOR     = 

OBJECT_NAME    = RSP-03
OBJECT_ID      = 1998-067XL
CENTER_NAME    = EARTH
REF_FRAME      = TEME
TIME_SYSTEM    = UTC
MEAN_ELEMENT_THEORY = SGP/SGP4

EPOCH          = 2025-12-25T06:38:37.432032
MEAN_MOTION    = 15.71873826
ECCENTRICITY   = .00060461
INCLINATION    = 51.6260
RA_OF_ASC_NODE = 72.4976
ARG_OF_PERICENTER = 331.0296
MEAN_ANOMALY   = 29.0366

EPHEMERIS_TYPE = 0
CLASSIFICATION_TYPE = U
NORAD_CAT_ID   = 65732
ELEMENT_SET_NO = 999
REV_AT_EPOCH   = 1513
BSTAR          = .10910555E-2
MEAN_MOTION_DOT = .147046E-2
MEAN_MOTION_DDOT = 0

CCSDS_OMM_VERS = 2.0
CREATION_DATE  = 
ORIGINATOR     = 

OBJECT_NAME    = GHS-01
OBJECT_ID      = 1998-067XM
CENTER_NAME    = EARTH
REF_FRAME      = TEME
TIME_SYSTEM    = UTC
MEAN_ELEMENT_THEORY = SGP/SGP4

EPOCH          = 2025-12-25T05:35:06.591552
MEAN_MOTION    = 15.80593355
ECCENTRICITY   = .0009577
INCLINATION    = 51.6284
RA_OF_ASC_NODE = 70.6990
ARG_OF_PERICENTER = 357.1699
MEAN_ANOMALY   = 2.9247

EPHEMERIS_TYPE = 0
CLASSIFICATION_TYPE = U
NORAD_CAT_ID   = 65733
ELEMENT_SET_NO = 999
REV_AT_EPOCH   = 1515
BSTAR          = .14478378E-2
MEAN_MOTION_DOT = .292396E-2
MEAN_MOTION_DDOT = 0

CCSDS_OMM_VERS = 2.0
CREATION_DATE  = 
ORIGINATOR     = 

OBJECT_NAME    = YOTSUBA-KULOVER
OBJECT_ID      = 1998-067XN
CENTER_NAME    = EARTH
REF_FRAME      = TEME
TIME_SYSTEM    = UTC
MEAN_ELEMENT_THEORY = SGP/SGP4

EPOCH          = 2025-12-25T06:23:13.150752
MEAN_MOTION    = 15.61130686
ECCENTRICITY   = .00025006
INCLINATION    = 51.6289
RA_OF_ASC_NODE = 76.9426
ARG_OF_PERICENTER = 358.5188
MEAN_ANOMALY   = 1.5798

EPHEMERIS_TYPE = 0
CLASSIFICATION_TYPE = U
NORAD_CAT_ID   = 65941
ELEMENT_SET_NO = 999
REV_AT_EPOCH   = 1181
BSTAR          = .8153338E-3
MEAN_MOTION_DOT = .70283E-3
MEAN_MOTION_DDOT = 0

CCSDS_OMM_VERS = 2.0
CREATION_DATE  = 
ORIGINATOR     = 

OBJECT_NAME    = BOTAN
OBJECT_ID      = 1998-067XP
CENTER_NAME    = EARTH
REF_FRAME      = TEME
TIME_SYSTEM    = UTC
MEAN_ELEMENT_THEORY = SGP/SGP4

EPOCH          = 2025-12-24T22:06:45.138528
MEAN_MOTION    = 15.65433076
ECCENTRICITY   = .00033628
INCLINATION    = 51.6276
RA_OF_ASC_NODE = 77.6384
ARG_OF_PERICENTER = 336.9031
MEAN_ANOMALY   = 23.1813

EPHEMERIS_TYPE = 0
CLASSIFICATION_TYPE = U
NORAD_CAT_ID   = 65942
ELEMENT_SET_NO = 999
REV_AT_EPOCH   = 1177
BSTAR          = .11375872E-2
MEAN_MOTION_DOT = .117098E-2
MEAN_MOTION_DDOT = 0

CCSDS_OMM_VERS = 2.0
CREATION_DATE  = 
ORIGINATOR     = 

OBJECT_NAME    = E-KAGAKU-1
OBJECT_ID      = 1998-067XQ
CENTER_NAME    = EARTH
REF_FRAME      = TEME
TIME_SYSTEM    = UTC
MEAN_ELEMENT_THEORY = SGP/SGP4

EPOCH          = 2025-12-24T11:57:09.904320
MEAN_MOTION    = 15.61022855
ECCENTRICITY   = .00014072
INCLINATION    = 51.6316
RA_OF_ASC_NODE = 80.8196
ARG_OF_PERICENTER = 317.6976
MEAN_ANOMALY   = 42.3909

EPHEMERIS_TYPE = 0
CLASSIFICATION_TYPE = U
NORAD_CAT_ID   = 65943
ELEMENT_SET_NO = 999
REV_AT_EPOCH   = 1169
BSTAR          = .86882896E-3
MEAN_MOTION_DOT = .74652E-3
MEAN_MOTION_DDOT = 0

CCSDS_OMM_VERS = 2.0
CREATION_DATE  = 
ORIGINATOR     = 

OBJECT_NAME    = HRC MONOBLOCK CAMERA
OBJECT_ID      = 1998-067XR
CENTER_NAME    = EARTH
REF_FRAME      = TEME
TIME_SYSTEM    = UTC
MEAN_ELEMENT_THEORY = SGP/SGP4

EPOCH          = 2025-12-25T04:28:38.396064
MEAN_MOTION    = 15.54995284
ECCENTRICITY   = .00020993
INCLINATION    = 51.6301
RA_OF_ASC_NODE = 79.4075
ARG_OF_PERICENTER = 245.5071
MEAN_ANOMALY   = 114.5701

EPHEMERIS_TYPE = 0
CLASSIFICATION_TYPE = U
NORAD_CAT_ID   = 66052
ELEMENT_SET_NO = 999
REV_AT_EPOCH   = 1077
BSTAR          = .53053215E-3
MEAN_MOTION_DOT = .35933E-3
MEAN_MOTION_DDOT = 0

CCSDS_OMM_VERS = 2.0
CREATION_DATE  = 
ORIGINATOR     = 

OBJECT_NAME    = HTV-X1
OBJECT_ID      = 2025-241A
CENTER_NAME    = EARTH
REF_FRAME      = TEME
TIME_SYSTEM    = UTC
MEAN_ELEMENT_THEORY = SGP/SGP4

EPOCH          = 2025-12-25T05:52:58.411200
MEAN_MOTION    = 15.49803499
ECCENTRICITY   = .00032029
INCLINATION    = 51.6316
RA_OF_ASC_NODE = 80.5467
ARG_OF_PERICENTER = 298.8467
MEAN_ANOMALY   = 61.2200

EPHEMERIS_TYPE = 0
CLASSIFICATION_TYPE = U
NORAD_CAT_ID   = 66174
ELEMENT_SET_NO = 999
REV_AT_EPOCH   = 51
BSTAR          = .25322562E-3
MEAN_MOTION_DOT = .13923E-3
MEAN_MOTION_DDOT = 0

CCSDS_OMM_VERS = 2.0
CREATION_DATE  = 
ORIGINATOR     = 

OBJECT_NAME    = SZ-21 MODULE
OBJECT_ID      = 2025-246C
CENTER_NAME    = EARTH
REF_FRAME      = TEME
TIME_SYSTEM    = UTC
MEAN_ELEMENT_THEORY = SGP/SGP4

EPOCH          = 2025-12-25T04:36:53.602848
MEAN_MOTION    = 15.63137538
ECCENTRICITY   = .00045892
INCLINATION    = 41.4767
RA_OF_ASC_NODE = 300.0489
ARG_OF_PERICENTER = 327.9877
MEAN_ANOMALY   = 32.0683

EPHEMERIS_TYPE = 0
CLASSIFICATION_TYPE = U
NORAD_CAT_ID   = 66515
ELEMENT_SET_NO = 999
REV_AT_EPOCH   = 639
BSTAR          = .31272419E-3
MEAN_MOTION_DOT = .29146E-3
MEAN_MOTION_DDOT = 0

CCSDS_OMM_VERS = 2.0
CREATION_DATE  = 
ORIGINATOR     = 

OBJECT_NAME    = SHENZHOU-22
OBJECT_ID      = 2025-272A
CENTER_NAME    = EARTH
REF_FRAME      = TEME
TIME_SYSTEM    = UTC
MEAN_ELEMENT_THEORY = SGP/SGP4

EPOCH          = 2025-12-25T04:52:13.170144
MEAN_MOTION    = 15.59668525
ECCENTRICITY   = .0008299
INCLINATION    = 41.4684
RA_OF_ASC_NODE = 301.0153
ARG_OF_PERICENTER = 140.7074
MEAN_ANOMALY   = 219.4368

EPHEMERIS_TYPE = 0
CLASSIFICATION_TYPE = U
NORAD_CAT_ID   = 66645
ELEMENT_SET_NO = 999
REV_AT_EPOCH   = 26598
BSTAR          = .24182625E-3
MEAN_MOTION_DOT = .196E-3
MEAN_MOTION_DDOT = 0

