CYGNUS NG-23            
1 65616U 25208A   25359.24512050  .00013923  00000+0  25323-3 0  9999
2 65616  51.6316  80.5467 0003202 298.8467  61.2200 15.49803499   226
DRAGONFLY               
1 65729U 98067XH  25358.92875737  .00206057  00000+0  12604-2 0  9994
2 65729  51.6251  73.1569 0008056 349.7528  10.3306 15.76149650 15080
1998-067XK              
1 65731U 98067XK  25358.46967625  .00106638  00000+0  93627-3 0  9993
2 65731  51.6288  77.6233 0004980 319.0572  41.0050 15.67978094 14988
RSP-03                  
1 65732U 98067XL  25359.27682213  .00147046  00000+0  10911-2 0  9993
2 65732  51.6260  72.4976 0006046 331.0296  29.0366 15.71873826 15134
GHS-01                  
1 65733U 98067XM  25359.23271518  .00292396  00000+0  14478-2 0  9993
2 65733  51.6284  70.6990 0009577 357.1699   2.9247 15.80593355 15151
YOTSUBA-KULOVER         
1 65941U 98067XN  25359.26612443  .00070283  00000+0  81533-3 0  9999
2 65941  51.6289  76.9426 0002500 358.5188   1.5798 15.61130686 11815
BOTAN                   
1 65942U 98067XP  25358.92135577  .00117098  00000+0  11376-2 0  9993
2 65942  51.6276  77.6384 0003362 336.9031  23.1813 15.65433076 11773
E-KAGAKU-1              
1 65943U 98067XQ  25358.49803130  .00074652  00000+0  86883-3 0  9997
2 65943  51.6316  80.8196 0001407 317.6976  42.3909 15.61022855 11693
HRC MONOBLOCK CAMERA    
1 66052U 98067XR  25359.18655551  .00035933  00000+0  53053-3 0  9990
2 66052  51.6301  79.4075 0002099 245.5071 114.5701 15.54995284 10779
HTV-X1                  
1 66174U 25241A   25359.24512050  .00013923  00000+0  25323-3 0  9996
2 66174  51.6316  80.5467 0003202 298.8467  61.2200 15.49803499   518
SZ-21 MODULE            
1 66515U 25246C   25359.19228707  .00029146  00000+0  31272-3 0  9991
2 66515  41.4767 300.0489 0004589 327.9877  32.0683 15.63137538  6399
SHENZHOU-22             
1 66645U 25272A   25359.20293021  .00019600  00000+0  24183-3 0  9994
2 66645  41.4684 301.0153 0008299 140.7074 219.4368 15.59668525265985
